# From MPC106342
C/1995 O1 (Hale-Bopp),e,89.0573,283.2178,130.5010,178.4894,0.0004133,0.99495362,0.0000,03/29.7430/1997,2000,g -2.0,4.0
# From MPEC 2021-J28
C/2010 U3 (Boattini),e,55.5280,43.0219,88.0625,2288,0.0000090,0.99630953,0.0000,02/25.6209/2019,2000,g  1.0,4.0
# From MPEC 2021-J28
C/2011 KP36 (Spacewatch),e,18.9860,173.2798,180.7054,39.00234,0.0040464,0.87485165,7.3761,05/25.0/2021,2000,g  4.5,4.0
# From MPEC 2021-J28
C/2014 B1 (Schwartz),e,28.4093,161.4183,345.7388,6124,0.0000021,0.99844023,0.0000,09/08.0904/2017,2000,g  4.0,4.0
# From MPEC 2021-J28
C/2014 OE4 (PANSTARRS),h,12/12.9751/2016,81.3012,240.4216,65.8903,1.003164,6.249622,2000,11.0,2.0
# From MPEC 2021-J28
C/2015 XY1 (Lemmon),h,04/27.2225/2018,148.8537,281.6156,196.2028,1.002126,7.923121,2000,5.5,4.0
# From MPEC 2021-J28
C/2016 Q2 (PANSTARRS),h,05/11.8846/2021,109.3882,322.2957,84.5283,1.000699,7.081933,2000,6.0,4.0
# From MPEC 2021-J28
C/2017 K2 (PANSTARRS),h,12/19.7567/2022,87.5520,88.2454,236.1876,1.000557,1.797612,2000,1.5,4.0
# From MPEC 2021-J28
C/2017 M4 (ATLAS),h,01/17.9312/2019,105.6486,65.8898,167.6040,1.001344,3.253335,2000,6.0,4.0
# From MPEC 2021-J28
C/2017 T2 (PANSTARRS),e,57.2258,64.3769,92.9998,2816,0.0000066,0.99942627,0.0000,05/04.9223/2020,2000,g  5.0,4.0
# From MPEC 2021-J28
C/2017 U7 (PANSTARRS),h,09/14.1474/2019,142.5908,276.2446,326.3159,1.000515,6.423335,2000,8.3,2.0
# From MPEC 2021-J28
C/2017 Y2 (PANSTARRS),h,11/04.7708/2020,128.4115,65.9943,147.8953,1.000751,4.632265,2000,15.0,4.0
# From MPEC 2021-J28
C/2018 B1 (Lemmon),h,03/29.2515/2018,162.4202,133.1907,68.3161,1.000529,5.117537,2000,9.0,4.0
# From MPEC 2021-J28
C/2018 DO4 (Lemmon),e,160.4687,251.2342,176.1371,25.70475,0.0075628,0.90623575,4.8844,05/25.0/2021,2000,g 11.0,4.0
# From MPEC 2021-J28
C/2018 F4 (PANSTARRS),h,12/04.1053/2019,78.0911,26.5146,263.2294,1.001201,3.440706,2000,11.0,6.0
# From MPEC 2021-J28
C/2018 N2 (ASASSN),h,11/10.9844/2019,77.5306,25.2379,24.4089,1.000163,3.124946,2000,6.0,4.0
# From MPEC 2021-J28
C/2018 U1 (Lemmon),h,11/02.9480/2021,108.2966,75.4805,180.4471,1.001281,4.993119,2000,5.0,4.0
# From MPEC 2021-J28
C/2019 C1 (ATLAS),e,36.0292,212.3868,319.1798,727.3322,0.0000502,0.99095184,0.0000,05/05.4561/2020,2000,g 10.0,4.0
# From MPEC 2021-J28
C/2019 D1 (Flewelling),e,34.0717,231.7121,70.5427,142.1313,0.0005817,0.98888738,0.0000,05/11.8669/2019,2000,g 13.0,4.0
# From MPEC 2021-J28
C/2019 F1 (ATLAS-Africano),h,06/22.8498/2021,54.1749,38.7251,251.1283,1.003670,3.595702,2000,5.5,4.0
# From MPEC 2021-J28
C/2019 K4 (Ye),e,105.3005,180.1582,139.7762,1431,0.0000182,0.99842085,0.0000,06/16.2331/2019,2000,g 12.5,4.0
# From MPEC 2021-J28
C/2019 K7 (Smith),e,103.5421,307.9294,27.3206,61965,0.0000001,0.99992777,0.0000,06/17.0449/2020,2000,g  6.0,4.0
# From NK 1615
P/1996 R2 (Lagerkvist),e,2.6004,40.0232,333.3223,3.775022,0.1343769,0.31418629,111.9618,05/25.0/2021,2000,g 11.5,4.0
# From MPC 30063
P/1997 B1 (Kobayashi),e,12.3395,328.8821,183.3399,8.573964,0.0392583,0.76021725,347.9178,05/25.0/2021,2000,g 15.0,2.0
# From MPC 75703
P/1998 VS24 (LINEAR),e,5.0259,159.0344,244.6323,4.528489,0.1022761,0.24223892,125.0699,05/25.0/2021,2000,g 13.0,2.0
# From NK 731
P/1999 RO28 (LONEOS),e,7.5672,137.8853,231.2647,3.426729,0.1553762,0.67220224,108.5725,05/25.0/2021,2000,g 20.0,2.0
# From MPC 75704
P/1999 XN120 (Catalina),e,5.0297,285.2962,161.8425,4.179027,0.1153696,0.21023842,166.7229,05/25.0/2021,2000,g 13.5,2.0
# From NK 744
P/2000 R2 (LINEAR),e,11.6859,160.2887,176.5366,3.466592,0.1527038,0.53160165,108.0375,05/25.0/2021,2000,g 18.0,4.0
# From MPC 43019
P/2001 H5 (NEAT),e,8.3669,328.6835,224.8512,6.097808,0.0654551,0.59845748,133.8959,05/25.0/2021,2000,g 12.0,4.0
# From MPC 75704
P/2001 Q6 (NEAT),e,56.9076,22.1522,42.9334,7.953043,0.0439445,0.82294608,315.6231,05/25.0/2021,2000,g 13.5,4.0
# From MPC 47727
P/2002 EJ57 (LINEAR),e,4.9762,330.3255,167.3616,6.470973,0.0598756,0.59247181,64.1819,05/25.0/2021,2000,g 12.5,4.0
# From MPC109588
P/2002 T6 (NEAT-LINEAR),e,10.8361,206.3001,219.6578,7.681689,0.0462934,0.56058175,306.5541,05/25.0/2021,2000,g 10.5,4.0
# From MPC 75007
C/2002 VQ94 (LINEAR),e,70.6023,35.0479,100.1305,185.2175,0.0003910,0.96312130,2.1883,05/25.0/2021,2000,g  9.5,2.0
# From MPC 50354
P/2003 F2 (NEAT),e,11.6055,359.0401,192.0644,6.497789,0.0595053,0.54232507,33.2858,05/25.0/2021,2000,g 16.5,2.0
# From MPC 50139
P/2003 QX29 (NEAT),e,11.3900,264.5715,37.4783,8.028332,0.0433277,0.47299269,293.5666,05/25.0/2021,2000,g  8.5,4.0
# From MPC105235
P/2003 T12 (SOHO),e,11.0189,174.5756,219.7588,2.586008,0.2370060,0.76973418,90.7995,05/25.0/2021,2000,g 17.0,4.0
# From MPC 82312
P/2004 A1 (LONEOS),e,10.5516,124.8475,21.3201,7.960049,0.0438864,0.30932746,269.2563,05/25.0/2021,2000,g  6.5,4.0
# From MPC 54558
P/2004 DO29 (Spacewatch-LINEAR),e,14.5322,147.3737,40.6786,7.285183,0.0501237,0.44117385,304.5327,05/25.0/2021,2000,g 13.5,2.0
# From MPC 54823
P/2004 FY140 (LINEAR),e,2.1348,326.7620,242.4065,4.903047,0.0907831,0.16830786,193.6059,05/25.0/2021,2000,g 12.5,2.0
# From MPC 53304
P/2004 R3 (LINEAR-NEAT),e,12.8098,305.4708,38.0931,4.794697,0.0938777,0.26028013,348.5457,05/25.0/2021,2000,g 14.5,4.0
# From MPC 55521
P/2004 V3 (Siding Spring),e,50.4393,356.1224,322.3455,7.141104,0.0516483,0.44633434,312.9404,05/25.0/2021,2000,g 11.5,4.0
# From MPC 75705
P/2004 V5 (LINEAR-Hill),e,19.3424,47.7819,87.7155,7.979108,0.0437293,0.44359841,260.4465,05/25.0/2021,2000,g  8.0,4.0
# From MPC 54164
P/2005 E1 (Tubbiolo),e,4.2637,335.5684,194.0654,7.040159,0.0527631,0.37514327,314.7487,05/25.0/2021,2000,g 10.0,4.0
# From MPC 54823
P/2005 GF8 (LONEOS),e,1.1912,314.7930,284.7904,5.837929,0.0698740,0.51754971,42.2456,05/25.0/2021,2000,g 11.5,4.0
# From MPC 79019
P/2005 J1 (McNaught),e,31.7618,268.8107,338.9617,3.570358,0.1460954,0.56965224,139.5898,05/25.0/2021,2000,g 16.5,4.0
# From MPC 74246
P/2005 L1 (McNaught),e,7.7386,138.2478,149.7228,3.975584,0.1243376,0.20950504,339.8918,05/25.0/2021,2000,g  9.5,4.0
# From MPC 75706
P/2005 S2 (Skiff),e,3.1357,161.2078,229.1618,8.015096,0.0434351,0.19735689,238.6680,05/25.0/2021,2000,g  7.5,4.0
# From MPC 75706
P/2005 SB216 (LONEOS),e,24.0843,1.1958,83.3652,7.131142,0.0517566,0.46365971,272.0352,05/25.0/2021,2000,g 12.0,2.0
# From MPC 55717
P/2005 T2 (Christensen),e,8.2922,260.1595,58.8331,3.846514,0.1306481,0.41637805,53.7734,05/25.0/2021,2000,g 14.5,4.0
# From MPC 73461
P/2005 T3 (Read),e,6.2239,27.7185,6.8433,7.581871,0.0472106,0.17435924,269.7150,05/25.0/2021,2000,g  9.0,4.0
# From MPC 73461
P/2005 T4 (SWAN),e,160.2087,25.7454,41.6501,9.361236,0.0344116,0.92978583,196.6957,05/25.0/2021,2000,g 15.0,4.0
# From MPC 75706
P/2005 T5 (Broughton),e,21.3598,57.0026,304.5617,7.289655,0.0500776,0.55227864,285.8187,05/25.0/2021,2000,g 11.0,4.0
# From MPC 56954
P/2005 W3 (Kowalski),e,16.4202,210.0854,200.7239,6.328863,0.0619035,0.54335658,352.6410,05/25.0/2021,2000,g 12.0,4.0
# From MPC 75706
P/2005 Y2 (McNaught),e,19.0632,94.4341,193.9215,6.383613,0.0611089,0.47061907,13.2714,05/25.0/2021,2000,g  9.0,4.0
# From MPC 56954
P/2006 F4 (Spacewatch),e,12.4208,183.8335,30.9918,3.522598,0.1490766,0.33999745,98.6213,05/25.0/2021,2000,g 15.0,4.0
# From MPC 75707
P/2006 HR30 (Siding Spring),e,31.8306,309.9005,117.2913,7.811173,0.0451471,0.84227385,238.2500,05/25.0/2021,2000,g 11.0,4.0
# From MPC 75707
P/2006 S4 (Christensen),e,39.5315,36.0815,305.1459,6.315790,0.0620958,0.50834547,345.4327,05/25.0/2021,2000,g 11.0,4.0
# From MPC 75707
P/2007 A2 (Christensen),e,26.4877,300.9076,186.7348,6.327815,0.0619189,0.55774260,325.7434,05/25.0/2021,2000,g 13.5,4.0
# From MPC 75707
P/2007 C2 (Catalina),e,8.6387,275.5283,180.0224,6.992247,0.0533063,0.47079510,265.8425,05/25.0/2021,2000,g 10.0,4.0
# From MPC 84315
C/2007 D1 (LINEAR),e,41.5017,171.2054,340.0260,1423,0.0000184,0.99380183,0.0000,06/08.5722/2007,2000,g  3.5,4.0
# From MPC 82314
P/2007 K2 (Gibbs),e,7.6326,188.6429,347.4418,7.265381,0.0503288,0.68311781,257.0038,05/25.0/2021,2000,g 14.0,4.0
# From MPC 60925
P/2007 Q2 (Gilmore),e,10.2027,172.1601,162.7770,5.652516,0.0733401,0.67011012,13.1301,05/25.0/2021,2000,g 16.0,4.0
# From MPC 75708
P/2007 R4 (Garradd),e,20.2147,87.2145,282.5956,5.934779,0.0681706,0.67021033,346.5200,05/25.0/2021,2000,g 14.5,4.0
# From MPC 73462
P/2007 S1 (Zhao),e,5.9638,141.3718,245.6194,3.815870,0.1322251,0.33957716,293.7265,05/25.0/2021,2000,g 13.0,4.0
# From MPC 61994
P/2007 T2 (Kowalski),e,9.7483,3.3746,359.6387,3.046923,0.1853155,0.78539051,191.9987,05/25.0/2021,2000,g 18.5,4.0
# From MPC 75708
P/2008 CL94 (Lemmon),e,8.3466,33.3215,80.4292,6.162674,0.0644244,0.12047525,352.3606,05/25.0/2021,2000,g  8.0,4.0
# From MPC 75709
P/2008 L2 (Hill),e,25.8618,218.0084,141.2238,6.028395,0.0665888,0.61318871,312.3143,05/25.0/2021,2000,g 12.5,4.0
# From MPC 64114
P/2008 O3 (Boattini),e,32.2708,47.5873,341.1001,8.221328,0.0418111,0.69544790,198.5472,05/25.0/2021,2000,g 13.0,4.0
# From MPC 75709
P/2008 QP20 (LINEAR-Hill),e,7.5227,322.0725,75.5371,3.553827,0.1471159,0.49182412,327.3204,05/25.0/2021,2000,g 15.5,4.0
# From MPC 66204
P/2008 WZ96 (LINEAR),e,7.1116,56.4478,341.9266,3.487445,0.1513362,0.46988774,345.8084,05/25.0/2021,2000,g 13.5,4.0
# From MPC 75710
P/2008 Y3 (McNaught),e,38.7666,262.8022,238.2106,8.046789,0.0431788,0.44546408,195.8742,05/25.0/2021,2000,g  8.5,4.0
# From MPC 75710
P/2009 B1 (Boattini),e,22.2205,297.0896,128.8797,6.736875,0.0563659,0.63484335,254.9057,05/25.0/2021,2000,g 13.0,4.0
# From MPC 66466
C/2009 G1 (STEREO),e,108.7294,120.4426,175.4213,437.0368,0.0001079,0.99739912,0.0000,04/15.8754/2009,2000,g  9.0,4.0
# From MPC 75710
P/2009 O3 (Hill),e,16.2734,183.7032,154.4180,7.769335,0.0455122,0.68774455,199.5924,05/25.0/2021,2000,g 12.5,4.0
# From MPC 68902
P/2009 Q5 (McNaught),e,40.9832,160.2734,209.0282,7.436092,0.0486057,0.60903903,208.0360,05/25.0/2021,2000,g 10.0,4.0
# From MPC112389
P/2009 T2 (La Sagra),e,27.5629,215.8191,216.3871,7.723260,0.0459201,0.76535855,191.3394,05/25.0/2021,2000,g 14.0,4.0
# From MPC 75711
